H1 CPF  1  DGF 2022 01 10 12  5101 larets     NONE      
H2   304206 5557    27944 2022 01 01 00 00 00 2022 01 08 00 00 00    30 1 1  0 0 0
H5  0.0650
H9
10 0 59586  32400.000000  0       1798206.856       3548516.268      -5853735.107
10 0 59586  32430.000000  0       1774208.833       3356776.870      -5973059.702
10 0 59586  32460.000000  0       1747584.260       3161779.426      -6086345.384
10 0 59586  32490.000000  0       1718346.441       2963731.795      -6193478.962
10 0 59586  32520.000000  0       1686512.186       2762844.707      -6294353.435
10 0 59586  32550.000000  0       1652101.801       2559331.537      -6388868.085
10 0 59586  32580.000000  0       1615139.077       2353408.084      -6476928.572
10 0 59586  32610.000000  0       1575651.279       2145292.347      -6558447.014
10 0 59586  32640.000000  0       1533669.128       1935204.299      -6633342.070
10 0 59586  32670.000000  0       1489226.779       1723365.656      -6701539.014
10 0 59586  32700.000000  0       1442361.791       1509999.647      -6762969.801
10 0 59586  32730.000000  0       1393115.099       1295330.783      -6817573.130
10 0 59586  32760.000000  0       1341530.977       1079584.627      -6865294.491
10 0 59586  32790.000000  0       1287656.997        862987.564      -6906086.217
10 0 59586  32820.000000  0       1231543.990        645766.571      -6939907.531
10 0 59586  32850.000000  0       1173245.997        428148.982      -6966724.575
10 0 59586  32880.000000  0       1112820.218        210362.260      -6986510.446
10 0 59586  32910.000000  0       1050326.956         -7366.239      -6999245.217
10 0 59586  32940.000000  0        985829.557       -224809.494      -7004915.952
10 0 59586  32970.000000  0        919394.353       -441741.047      -7003516.720
10 0 59586  33000.000000  0        851090.587       -657935.228      -6995048.595
10 0 59586  33030.000000  0        780990.355       -873167.388      -6979519.661
10 0 59586  33060.000000  0        709168.524      -1087214.116      -6956945.005
10 0 59586  33090.000000  0        635702.662      -1299853.470      -6927346.701
10 0 59586  33120.000000  0        560672.955      -1510865.192      -6890753.796
10 0 59586  33150.000000  0        484162.124      -1720030.932      -6847202.285
10 0 59586  33180.000000  0        406255.342      -1927134.463      -6796735.091
10 0 59586  33210.000000  0        327040.140      -2131961.907      -6739402.029
10 0 59586  33240.000000  0        246606.312      -2334301.950      -6675259.768
10 0 59586  33270.000000  0        165045.815      -2533946.064      -6604371.777
10 0 59586  33300.000000  0         82452.670      -2730688.714      -6526808.272
10 0 59586  33330.000000  0         -1077.141      -2924327.571      -6442646.154
10 0 59586  33360.000000  0        -85445.782      -3114663.715      -6351968.936
10 0 59586  33390.000000  0       -170553.673      -3301501.837      -6254866.676
10 0 59586  33420.000000  0       -256299.599      -3484650.438      -6151435.897
10 0 59586  33450.000000  0       -342580.824      -3663922.029      -6041779.503
10 0 59586  33480.000000  0       -429293.212      -3839133.320      -5926006.690
10 0 59586  33510.000000  0       -516331.344      -4010105.413      -5804232.847
10 0 59586  33540.000000  0       -603588.644      -4176663.991      -5676579.457
10 0 59586  33570.000000  0       -690957.498      -4338639.495      -5543173.985
10 0 59586  33600.000000  0       -778329.389      -4495867.307      -5404149.763
10 0 59586  33630.000000  0       -865595.020      -4648187.923      -5259645.867
10 0 59586  33660.000000  0       -952644.451      -4795447.122      -5109806.993
10 0 59586  33690.000000  0      -1039367.230      -4937496.125      -4954783.318
10 0 59586  33720.000000  0      -1125652.529      -5074191.763      -4794730.364
10 0 59586  33750.000000  0      -1211389.279      -5205396.624      -4629808.849
10 0 59586  33780.000000  0      -1296466.309      -5330979.202      -4460184.537
10 0 59586  33810.000000  0      -1380772.488      -5450814.040      -4286028.079
10 0 59586  33840.000000  0      -1464196.861      -5564781.863      -4107514.849
10 0 59586  33870.000000  0      -1546628.790      -5672769.712      -3924824.775
10 0 59586  33900.000000  0      -1627958.099      -5774671.061      -3738142.169
10 0 59586  33930.000000  0      -1708075.214      -5870385.938      -3547655.543
10 0 59586  33960.000000  0      -1786871.304      -5959821.034      -3353557.425
10 0 59586  33990.000000  0      -1864238.425      -6042889.806      -3156044.173
10 0 59586  34020.000000  0      -1940069.666      -6119512.571      -2955315.779
10 0 59586  34050.000000  0      -2014259.286      -6189616.600      -2751575.668
10 0 59586  34080.000000  0      -2086702.857      -6253136.192      -2545030.495
10 0 59586  34110.000000  0      -2157297.410      -6310012.758      -2335889.936
10 0 59586  34140.000000  0      -2225941.567      -6360194.874      -2124366.476
10 0 59586  34170.000000  0      -2292535.686      -6403638.351      -1910675.189
10 0 59586  34200.000000  0      -2356981.998      -6440306.276      -1695033.525
10 0 59586  34230.000000  0      -2419184.740      -6470169.056      -1477661.075
10 0 59586  34260.000000  0      -2479050.293      -6493204.452      -1258779.351
10 0 59586  34290.000000  0      -2536487.314      -6509397.599      -1038611.553
10 0 59586  34320.000000  0      -2591406.865      -6518741.025       -817382.336
10 0 59586  34350.000000  0      -2643722.539      -6521234.650       -595317.573
10 0 59586  34380.000000  0      -2693350.591      -6516885.791       -372644.124
10 0 59586  34410.000000  0      -2740210.053      -6505709.142       -149589.588
10 0 59586  34440.000000  0      -2784222.857      -6487726.763         73617.926
10 0 59586  34470.000000  0      -2825313.952      -6462968.042        296750.047
10 0 59586  34500.000000  0      -2863411.412      -6431469.664        519578.384
10 0 59586  34530.000000  0      -2898446.551      -6393275.564        741874.764
10 0 59586  34560.000000  0      -2930354.021      -6348436.870        963411.476
10 0 59586  34590.000000  0      -2959071.922      -6297011.838       1183961.517
10 0 59586  34620.000000  0      -2984541.890      -6239065.784       1403298.832
10 0 59586  34650.000000  0      -3006709.197      -6174671.000       1621198.551
10 0 59586  34680.000000  0      -3025522.836      -6103906.661       1837437.233
10 0 59586  34710.000000  0      -3040935.605      -6026858.733       2051793.104
10 0 59586  34740.000000  0      -3052904.186      -5943619.866       2264046.286
10 0 59586  34770.000000  0      -3061389.222      -5854289.280       2473979.038
10 0 59586  34800.000000  0      -3066355.380      -5758972.645       2681375.984
10 0 59586  34830.000000  0      -3067771.422      -5657781.951       2886024.340
10 0 59586  34860.000000  0      -3065610.260      -5550835.377       3087714.143
10 0 59586  34890.000000  0      -3059849.009      -5438257.142       3286238.470
10 0 59586  34920.000000  0      -3050469.042      -5320177.364       3481393.654
10 0 59586  34950.000000  0      -3037456.025      -5196731.894       3672979.506
10 0 59586  34980.000000  0      -3020799.961      -5068062.166       3860799.516
10 0 59586  35010.000000  0      -3000495.222      -4934315.016       4044661.067
10 0 59586  35040.000000  0      -2976540.576      -4795642.517       4224375.632
10 0 59586  35070.000000  0      -2948939.209      -4652201.796       4399758.971
10 0 59586  35100.000000  0      -2917698.744      -4504154.845       4570631.323
10 0 59586  35130.000000  0      -2882831.252      -4351668.338       4736817.592
10 0 59586  35160.000000  0      -2844353.260      -4194913.428       4898147.533
10 0 59586  35190.000000  0      -2802285.744      -4034065.553       5054455.921
10 0 59586  35220.000000  0      -2756654.129      -3869304.225       5205582.729
10 0 59586  35250.000000  0      -2707488.273      -3700812.823       5351373.282
10 0 59586  35280.000000  0      -2654822.447      -3528778.384       5491678.417
10 0 59586  35310.000000  0      -2598695.320      -3353391.386       5626354.632
10 0 59586  35340.000000  0      -2539149.928      -3174845.535       5755264.231
10 0 59586  35370.000000  0      -2476233.638      -2993337.544       5878275.467
10 0 59586  35400.000000  0      -2409998.116      -2809066.906       5995262.666
10 0 59586  35430.000000  0      -2340499.278      -2622235.680       6106106.362
10 0 59586  35460.000000  0      -2267797.244      -2433048.253       6210693.411
10 0 59586  35490.000000  0      -2191956.281      -2241711.121       6308917.108
10 0 59586  35520.000000  0      -2113044.751      -2048432.652       6400677.292
10 0 59586  35550.000000  0      -2031135.039      -1853422.858       6485880.449
10 0 59586  35580.000000  0      -1946303.485      -1656893.152       6564439.802
10 0 59586  35610.000000  0      -1858630.312      -1459056.119       6636275.391
10 0 59586  35640.000000  0      -1768199.544      -1260125.279       6701314.155
10 0 59586  35670.000000  0      -1675098.928      -1060314.850       6759489.990
10 0 59586  35700.000000  0      -1579419.838       -859839.517       6810743.814
10 0 59586  35730.000000  0      -1481257.197       -658914.205       6855023.621
10 0 59586  35760.000000  0      -1380709.374       -457753.844       6892284.530
10 0 59586  35790.000000  0      -1277878.087       -256573.142       6922488.832
10 0 59586  35820.000000  0      -1172868.300        -55586.353       6945606.027
10 0 59586  35850.000000  0      -1065788.112        144992.957       6961612.855
10 0 59586  35880.000000  0       -956748.644        344952.137       6970493.316
10 0 59586  35910.000000  0       -845863.924        544079.678       6972238.683
10 0 59586  35940.000000  0       -733250.763        742165.442       6966847.513
10 0 59586  35970.000000  0       -619028.631        939000.884       6954325.644
99
